IRIDIUM 136             
1 42962U 17061H   24228.91761834  .00000032  00000+0  43511-5 0  9998
2 42962  86.3979 305.3594 0002493  91.2110 268.9372 14.34218186358762
